{"fetched_at":"2026-07-15T06:35:39.467Z","source":"https://celestrak.org/NORAD/elements/gp.php?GROUP=qianfan&FORMAT=JSON","constellation":"qianfan","records":[{"OBJECT_NAME":"QIANFAN-33","OBJECT_ID":"2024-185Q","EPOCH":"2026-07-14T21:46:47.337312","CLASSIFICATION_TYPE":"U","MEAN_MOTION":13.96719557,"ECCENTRICITY":0.00086874,"INCLINATION":88.9794,"RA_OF_ASC_NODE":54.9324,"ARG_OF_PERICENTER":31.8371,"MEAN_ANOMALY":328.3329,"EPHEMERIS_TYPE":0,"NORAD_CAT_ID":61566,"ELEMENT_SET_NO":999,"REV_AT_EPOCH":9905,"BSTAR":0.00012032675,"MEAN_MOTION_DOT":0.0000018,"MEAN_MOTION_DDOT":0},{"OBJECT_NAME":"QIANFAN-34","OBJECT_ID":"2024-185R","EPOCH":"2026-07-14T22:06:47.994048","CLASSIFICATION_TYPE":"U","MEAN_MOTION":14.0248377,"ECCENTRICITY":0.00068289,"INCLINATION":88.9772,"RA_OF_ASC_NODE":54.2111,"ARG_OF_PERICENTER":31.0418,"MEAN_ANOMALY":329.1165,"EPHEMERIS_TYPE":0,"NORAD_CAT_ID":61567,"ELEMENT_SET_NO":999,"REV_AT_EPOCH":9937,"BSTAR":0.000058063678,"MEAN_MOTION_DOT":0.00000103,"MEAN_MOTION_DDOT":0},{"OBJECT_NAME":"QIANFAN-35","OBJECT_ID":"2024-185S","EPOCH":"2026-07-14T21:17:49.295040","CLASSIFICATION_TYPE":"U","MEAN_MOTION":14.28297664,"ECCENTRICITY":0.00046123,"INCLINATION":88.9798,"RA_OF_ASC_NODE":51.7455,"ARG_OF_PERICENTER":320.0005,"MEAN_ANOMALY":40.0849,"EPHEMERIS_TYPE":0,"NORAD_CAT_ID":61568,"ELEMENT_SET_NO":999,"REV_AT_EPOCH":10074,"BSTAR":0.00013163225,"MEAN_MOTION_DOT":0.00000343,"MEAN_MOTION_DDOT":0},{"OBJECT_NAME":"QIANFAN-36","OBJECT_ID":"2024-185T","EPOCH":"2026-07-14T20:49:50.224224","CLASSIFICATION_TYPE":"U","MEAN_MOTION":13.5564009,"ECCENTRICITY":0.00075829,"INCLINATION":88.9772,"RA_OF_ASC_NODE":58.7327,"ARG_OF_PERICENTER":127.9545,"MEAN_ANOMALY":232.2295,"EPHEMERIS_TYPE":0,"NORAD_CAT_ID":61569,"ELEMENT_SET_NO":999,"REV_AT_EPOCH":9693,"BSTAR":0.00012223412,"MEAN_MOTION_DOT":9.7e-7,"MEAN_MOTION_DDOT":0},{"OBJECT_NAME":"QIANFAN-37","OBJECT_ID":"2024-232B","EPOCH":"2026-07-14T23:04:06.783168","CLASSIFICATION_TYPE":"U","MEAN_MOTION":13.51011264,"ECCENTRICITY":0.00019877,"INCLINATION":89.0066,"RA_OF_ASC_NODE":19.7941,"ARG_OF_PERICENTER":108.3372,"MEAN_ANOMALY":251.7995,"EPHEMERIS_TYPE":0,"NORAD_CAT_ID":62238,"ELEMENT_SET_NO":999,"REV_AT_EPOCH":12809,"BSTAR":0.00003622704,"MEAN_MOTION_DOT":3.5e-7,"MEAN_MOTION_DDOT":0},{"OBJECT_NAME":"QIANFAN-38","OBJECT_ID":"2024-232C","EPOCH":"2026-07-14T21:53:01.503744","CLASSIFICATION_TYPE":"U","MEAN_MOTION":13.51007865,"ECCENTRICITY":0.0012703,"INCLINATION":89.0073,"RA_OF_ASC_NODE":19.7294,"ARG_OF_PERICENTER":300.7883,"MEAN_ANOMALY":59.2017,"EPHEMERIS_TYPE":0,"NORAD_CAT_ID":62239,"ELEMENT_SET_NO":999,"REV_AT_EPOCH":12814,"BSTAR":0.000046545292,"MEAN_MOTION_DOT":4.2e-7,"MEAN_MOTION_DDOT":0},{"OBJECT_NAME":"QIANFAN-39","OBJECT_ID":"2024-232D","EPOCH":"2026-07-14T22:43:29.275104","CLASSIFICATION_TYPE":"U","MEAN_MOTION":14.25532321,"ECCENTRICITY":0.00185276,"INCLINATION":89.0061,"RA_OF_ASC_NODE":12.9037,"ARG_OF_PERICENTER":96.4133,"MEAN_ANOMALY":263.9171,"EPHEMERIS_TYPE":0,"NORAD_CAT_ID":62240,"ELEMENT_SET_NO":999,"REV_AT_EPOCH":13190,"BSTAR":0.000026626842,"MEAN_MOTION_DOT":7.8e-7,"MEAN_MOTION_DDOT":0},{"OBJECT_NAME":"QIANFAN-40","OBJECT_ID":"2024-232E","EPOCH":"2026-07-14T22:40:21.732672","CLASSIFICATION_TYPE":"U","MEAN_MOTION":13.51009426,"ECCENTRICITY":0.00119139,"INCLINATION":89.0101,"RA_OF_ASC_NODE":19.3703,"ARG_OF_PERICENTER":310.1179,"MEAN_ANOMALY":49.8927,"EPHEMERIS_TYPE":0,"NORAD_CAT_ID":62241,"ELEMENT_SET_NO":999,"REV_AT_EPOCH":12851,"BSTAR":0.000038947768,"MEAN_MOTION_DOT":3.7e-7,"MEAN_MOTION_DDOT":0},{"OBJECT_NAME":"QIANFAN-41","OBJECT_ID":"2024-232F","EPOCH":"2026-07-14T22:52:11.800704","CLASSIFICATION_TYPE":"U","MEAN_MOTION":13.51012316,"ECCENTRICITY":0.0012043,"INCLINATION":89.0071,"RA_OF_ASC_NODE":19.6728,"ARG_OF_PERICENTER":296.3033,"MEAN_ANOMALY":63.688,"EPHEMERIS_TYPE":0,"NORAD_CAT_ID":62242,"ELEMENT_SET_NO":999,"REV_AT_EPOCH":12817,"BSTAR":0.000059614547,"MEAN_MOTION_DOT":5e-7,"MEAN_MOTION_DDOT":0},{"OBJECT_NAME":"QIANFAN-42","OBJECT_ID":"2024-232G","EPOCH":"2026-07-14T22:34:53.283936","CLASSIFICATION_TYPE":"U","MEAN_MOTION":14.24620836,"ECCENTRICITY":0.00173317,"INCLINATION":89.0059,"RA_OF_ASC_NODE":12.9832,"ARG_OF_PERICENTER":102.276,"MEAN_ANOMALY":258.0375,"EPHEMERIS_TYPE":0,"NORAD_CAT_ID":62243,"ELEMENT_SET_NO":999,"REV_AT_EPOCH":13186,"BSTAR":0.00002688218,"MEAN_MOTION_DOT":7.7e-7,"MEAN_MOTION_DDOT":0},{"OBJECT_NAME":"QIANFAN-43","OBJECT_ID":"2024-232H","EPOCH":"2026-07-14T22:46:15.856896","CLASSIFICATION_TYPE":"U","MEAN_MOTION":13.51011718,"ECCENTRICITY":0.00136784,"INCLINATION":89.0076,"RA_OF_ASC_NODE":19.748,"ARG_OF_PERICENTER":301.8015,"MEAN_ANOMALY":58.1804,"EPHEMERIS_TYPE":0,"NORAD_CAT_ID":62244,"ELEMENT_SET_NO":999,"REV_AT_EPOCH":9678,"BSTAR":0.000043962033,"MEAN_MOTION_DOT":4e-7,"MEAN_MOTION_DDOT":0},{"OBJECT_NAME":"QIANFAN-44","OBJECT_ID":"2024-232J","EPOCH":"2026-07-14T22:28:24.750912","CLASSIFICATION_TYPE":"U","MEAN_MOTION":13.51013574,"ECCENTRICITY":0.00118381,"INCLINATION":89.0074,"RA_OF_ASC_NODE":19.5564,"ARG_OF_PERICENTER":299.0595,"MEAN_ANOMALY":60.937,"EPHEMERIS_TYPE":0,"NORAD_CAT_ID":62245,"ELEMENT_SET_NO":999,"REV_AT_EPOCH":12825,"BSTAR":0.000034404868,"MEAN_MOTION_DOT":3.4e-7,"MEAN_MOTION_DDOT":0},{"OBJECT_NAME":"QIANFAN-45","OBJECT_ID":"2024-232K","EPOCH":"2026-07-14T21:41:08.784096","CLASSIFICATION_TYPE":"U","MEAN_MOTION":13.51010987,"ECCENTRICITY":0.00124961,"INCLINATION":89.0077,"RA_OF_ASC_NODE":19.7139,"ARG_OF_PERICENTER":298.5461,"MEAN_ANOMALY":61.4432,"EPHEMERIS_TYPE":0,"NORAD_CAT_ID":62246,"ELEMENT_SET_NO":999,"REV_AT_EPOCH":12817,"BSTAR":0.000031248107,"MEAN_MOTION_DOT":3.2e-7,"MEAN_MOTION_DDOT":0},{"OBJECT_NAME":"QIANFAN-46","OBJECT_ID":"2024-232L","EPOCH":"2026-07-14T22:16:38.928576","CLASSIFICATION_TYPE":"U","MEAN_MOTION":13.51011663,"ECCENTRICITY":0.0012657,"INCLINATION":89.0074,"RA_OF_ASC_NODE":19.7717,"ARG_OF_PERICENTER":304.7495,"MEAN_ANOMALY":55.2464,"EPHEMERIS_TYPE":0,"NORAD_CAT_ID":62247,"ELEMENT_SET_NO":999,"REV_AT_EPOCH":12813,"BSTAR":0.000020278682,"MEAN_MOTION_DOT":2.5e-7,"MEAN_MOTION_DDOT":0},{"OBJECT_NAME":"QIANFAN-47","OBJECT_ID":"2024-232M","EPOCH":"2026-07-14T22:22:35.747616","CLASSIFICATION_TYPE":"U","MEAN_MOTION":13.51011154,"ECCENTRICITY":0.0013054,"INCLINATION":89.0069,"RA_OF_ASC_NODE":19.6956,"ARG_OF_PERICENTER":303.5961,"MEAN_ANOMALY":56.3944,"EPHEMERIS_TYPE":0,"NORAD_CAT_ID":62248,"ELEMENT_SET_NO":999,"REV_AT_EPOCH":12816,"BSTAR":0.000036696492,"MEAN_MOTION_DOT":3.6e-7,"MEAN_MOTION_DDOT":0},{"OBJECT_NAME":"QIANFAN-48","OBJECT_ID":"2024-232N","EPOCH":"2026-07-14T21:29:03.571872","CLASSIFICATION_TYPE":"U","MEAN_MOTION":13.51015776,"ECCENTRICITY":0.00153663,"INCLINATION":89.0073,"RA_OF_ASC_NODE":19.7095,"ARG_OF_PERICENTER":305.9529,"MEAN_ANOMALY":54.0196,"EPHEMERIS_TYPE":0,"NORAD_CAT_ID":62249,"ELEMENT_SET_NO":999,"REV_AT_EPOCH":12816,"BSTAR":0.000037448196,"MEAN_MOTION_DOT":3.6e-7,"MEAN_MOTION_DDOT":0}]}
