QIANFAN-33              
1 61566U 24185Q   26195.90749233  .00000180  00000+0  12033-3 0  9994
2 61566  88.9794  54.9324 0008687  31.8371 328.3329 13.96719557 99056
QIANFAN-34              
1 61567U 24185R   26195.92138882  .00000103  00000+0  58064-4 0  9999
2 61567  88.9772  54.2111 0006828  31.0418 329.1165 14.02483770 99374
QIANFAN-35              
1 61568U 24185S   26195.88737610  .00000343  00000+0  13163-3 0  9995
2 61568  88.9798  51.7455 0004612 320.0005  40.0849 14.28297664100743
QIANFAN-36              
1 61569U 24185T   26195.86794241  .00000097  00000+0  12223-3 0  9999
2 61569  88.9772  58.7327 0007582 127.9545 232.2295 13.55640090 96932
QIANFAN-37              
1 62238U 24232B   26195.96118962  .00000035  00000+0  36227-4 0  9990
2 62238  89.0066  19.7941 0001987 108.3372 251.7995 13.51011264128094
QIANFAN-38              
1 62239U 24232C   26195.91182296  .00000042  00000+0  46545-4 0  9999
2 62239  89.0073  19.7294 0012703 300.7883  59.2017 13.51007865128141
QIANFAN-39              
1 62240U 24232D   26195.94686661  .00000078  00000+0  26627-4 0  9997
2 62240  89.0061  12.9037 0018527  96.4133 263.9171 14.25532321131902
QIANFAN-40              
1 62241U 24232E   26195.94469598  .00000037  00000+0  38948-4 0  9990
2 62241  89.0101  19.3703 0011913 310.1179  49.8927 13.51009426128513
QIANFAN-41              
1 62242U 24232F   26195.95291436  .00000050  00000+0  59615-4 0  9995
2 62242  89.0071  19.6728 0012043 296.3033  63.6880 13.51012316128175
QIANFAN-42              
1 62243U 24232G   26195.94089449  .00000077  00000+0  26882-4 0  9993
2 62243  89.0059  12.9832 0017331 102.2760 258.0375 14.24620836131863
QIANFAN-43              
1 62244U 24232H   26195.94879464  .00000040  00000+0  43962-4 0  9996
2 62244  89.0076  19.7480 0013678 301.8015  58.1804 13.51011718 96786
QIANFAN-44              
1 62245U 24232J   26195.93639758  .00000034  00000+0  34405-4 0  9991
2 62245  89.0074  19.5564 0011838 299.0595  60.9370 13.51013574128252
QIANFAN-45              
1 62246U 24232K   26195.90357389  .00000032  00000+0  31248-4 0  9996
2 62246  89.0077  19.7139 0012496 298.5461  61.4432 13.51010987128174
QIANFAN-46              
1 62247U 24232L   26195.92822834  .00000025  00000+0  20279-4 0  9995
2 62247  89.0074  19.7717 0012657 304.7495  55.2464 13.51011663128134
QIANFAN-47              
1 62248U 24232M   26195.93235819  .00000036  00000+0  36696-4 0  9990
2 62248  89.0069  19.6956 0013054 303.5961  56.3944 13.51011154128163
QIANFAN-48              
1 62249U 24232N   26195.89518023  .00000036  00000+0  37448-4 0  9993
2 62249  89.0073  19.7095 0015366 305.9529  54.0196 13.51015776128166
